STARLINK-33883          
1 63781U 25091G   25127.91668981 -.00817030  21187-3 -22100-2 0  9997
2 63781  43.0007 348.8008 0001870 259.4817 353.6320 15.93319942  2037
STARLINK-33842          
1 63782U 25091H   25127.91668981 -.00817140  21203-3 -22045-2 0  9997
2 63782  43.0006 348.7983 0001913 266.3877 347.7051 15.93369432  2123
STARLINK-33892          
1 63783U 25091J   25127.91668981 -.00817645  21249-3 -21937-2 0  9997
2 63783  43.0007 348.7941 0001921 255.4149   0.3655 15.93473839  2038
STARLINK-33933          
1 63784U 25091K   25127.91668981 -.00827942  21763-3 -22078-2 0  9997
2 63784  43.0007 348.7899 0001891 265.0150 352.5377 15.93590961  2147
STARLINK-33906          
1 63785U 25091L   25127.91668981 -.00829604  21860-3 -22027-2 0  9997
2 63785  43.0007 348.7860 0002013 266.3205 352.5917 15.93672113  1989
STARLINK-33923          
1 63786U 25091M   25127.91668981 -.00832137  22001-3 -21992-2 0  9991
2 63786  43.0008 348.7827 0002066 268.5545 351.7944 15.93759608  1989
STARLINK-33947          
1 63787U 25091N   25127.91668981 -.00839039  22355-3 -22067-2 0  9996
2 63787  43.0009 348.7792 0001833 258.5116   3.3064 15.93852944  2033
STARLINK-33882          
1 63788U 25091P   25128.25002315 -.00904712  25539-3 -24317-2 0  9996
2 63788  43.0007 346.6938 0002106 262.3728 115.9875 15.93454564  2077
STARLINK-33875          
1 63789U 25091Q   25128.16667824 -.00852759  22979-3 -22667-2 0  9993
2 63789  43.0006 347.2100 0001789 267.8993 353.2787 15.93656145  2062
STARLINK-33869          
1 63790U 25091R   25127.91668981 -.00855872  23244-3 -22166-2 0  9991
2 63790  43.0008 348.7672 0001996 266.4451 359.9853 15.94143831  1981
STARLINK-33935          
1 63791U 25091S   25128.16667824 -.00869624  23856-3 -22889-2 0  9996
2 63791  43.0006 347.2020 0002093 270.6588 353.6951 15.93843027  2173
STARLINK-33916          
1 63792U 25091T   25127.91668981 -.00859039  23447-3 -22017-2 0  9992
2 63792  43.0008 348.7594 0001769 265.4645   4.0701 15.94340321  2038
STARLINK-33925          
1 63793U 25091U   25127.91668981 -.00868457  23937-3 -22161-2 0  9991
2 63793  43.0009 348.7561 0001825 264.5348   6.3224 15.94423640  2140
STARLINK-33870          
1 63794U 25091V   25127.91668981 -.00867511  23915-3 -22011-2 0  9992
2 63794  43.0011 348.7523 0001737 262.3263  10.1813 15.94530058  2033
STARLINK-33867          
1 63795U 25091W   25127.91668981 -.00877623  24456-3 -22123-2 0  9993
2 63795  43.0012 348.7476 0001573 258.5609  15.7414 15.94653621  2031
STARLINK-33918          
1 63796U 25091X   25127.91668981 -.00880285  24606-3 -22118-2 0  9993
2 63796  43.0012 348.7457 0001675 259.6252  15.7442 15.94714300  2088
STARLINK-33712          
1 63797U 25091Y   25127.91668981 -.01717135  00000+0 -60855-2 0  9996
2 63797  43.0012 348.7695 0001697 267.7779 357.9075 15.90816939  2036
STARLINK-33827          
1 63798U 25091Z   25128.25002315 -.01009106  31460-3 -25820-2 0  9991
2 63798  43.0006 346.6523 0001798 243.5187 151.1894 15.94397604  2078
STARLINK-33899          
1 63799U 25091AA  25128.16667824 -.00965114  29070-3 -24383-2 0  9990
2 63799  43.0010 347.1698 0001893 263.2635  14.1219 15.94626247  2174
STARLINK-33900          
1 63800U 25091AB  25128.16667824 -.00966270  29162-3 -24281-2 0  9996
2 63800  43.0007 347.1650 0002125 266.6051  12.5346 15.94725780  2174
STARLINK-33975          
1 63802U 25091AC  25128.16667824 -.00972894  29558-3 -24315-2 0  9994
2 63802  43.0007 347.1605 0002107 266.5613  14.3120 15.94827917  2174
STARLINK-33951          
1 63803U 25091AD  25128.16667824 -.00978141  29880-3 -24315-2 0  9994
2 63803  43.0009 347.1568 0001822 260.8653  21.7094 15.94929694  2110
STARLINK-33909          
1 63804U 25092A   25127.75002315 -.00764165  19468-3 -16997-2 0  9995
2 63804  43.0009 112.3877 0001893 253.4058 251.4178 15.96927530  1686
STARLINK-34029          
1 63805U 25092B   25127.75002315 -.00766246  19578-3 -16981-2 0  9993
2 63805  43.0011 112.3863 0001505 259.3607 246.0073 15.96995437  1685
STARLINK-34102          
1 63806U 25092C   25127.75002315 -.00772462  19895-3 -16989-2 0  9991
2 63806  43.0010 112.3845 0001680 253.9274 252.1060 15.97133468  1738
STARLINK-34109          
1 63807U 25092D   25127.75002315 -.00776715  20118-3 -16977-2 0  9994
2 63807  43.0011 112.3830 0001510 255.7991 250.8550 15.97246549  1680
STARLINK-34091          
1 63808U 25092E   25127.75002315 -.00783239  20457-3 -16980-2 0  9994
2 63808  43.0012 112.3813 0001601 257.2290 250.1068 15.97394910  1732
STARLINK-34095          
1 63809U 25092F   25127.75002315 -.00788639  20742-3 -16976-2 0  9996
2 63809  43.0012 112.3797 0001591 254.7682 253.2162 15.97523651  1688
STARLINK-34127          
1 63810U 25092G   25127.75002315 -.00794426  21049-3 -16969-2 0  9992
2 63810  43.0011 112.3779 0001668 253.2691 255.3818 15.97663071  1680
